STARLINK-30494          
1 57970U 23151G   26068.36049035 -.00001272  00000+0 -35691-4 0  9993
2 57970  43.0027 192.4566 0001155 241.5536 118.5200 15.28417441137406
STARLINK-31782          
1 59606U 24080F   26068.00697171  .00000535  00000+0  28975-4 0  9990
2 59606  43.0026  45.6133 0001265 267.9937  92.0770 15.27579787104381
